{
"type": "FeatureCollection",
"name": "local_master_20190302",
"crs": { "type": "name", "properties": { "name": "urn:ogc:def:crs:OGC:1.3:CRS84" } },
"features": [
{ "type": "Feature", "properties": { "simulator_id": 0, "planner_time": "2019-03-02T00:00:00", "planner_final_eta": 0.0049104641780187783, "planner_latitude": 39.749134285714284, "planner_longitude": -105.38596458974359, "simulator_expiration_date": null, "simulator_simulation_status": "None", "simulator_completion_date": null, "simulator_satellite": "None", "simulator_polygon_groundtrack": null }, "geometry": { "type": "Polygon", "coordinates": [ [ [ -105.080529717948721, 39.522089928571425 ], [ -105.080529717948721, 39.976178642857143 ], [ -105.691399461538467, 39.976178642857143 ], [ -105.691399461538467, 39.522089928571425 ], [ -105.080529717948721, 39.522089928571425 ] ] ] } },
{ "type": "Feature", "properties": { "simulator_id": 1, "planner_time": "2019-03-02T00:00:00", "planner_final_eta": 0.0064899494506593103, "planner_latitude": 41.111400428571429, "planner_longitude": -105.38596458974359, "simulator_expiration_date": null, "simulator_simulation_status": "None", "simulator_completion_date": null, "simulator_satellite": "None", "simulator_polygon_groundtrack": null }, "geometry": { "type": "Polygon", "coordinates": [ [ [ -105.080529717948721, 40.88435607142857 ], [ -105.080529717948721, 41.338444785714287 ], [ -105.691399461538467, 41.338444785714287 ], [ -105.691399461538467, 40.88435607142857 ], [ -105.080529717948721, 40.88435607142857 ] ] ] } },
{ "type": "Feature", "properties": { "simulator_id": 3, "planner_time": "2019-03-02T00:00:00", "planner_final_eta": 0.0070929177695101646, "planner_latitude": 42.927755285714284, "planner_longitude": -108.44031330769231, "simulator_expiration_date": null, "simulator_simulation_status": "None", "simulator_completion_date": null, "simulator_satellite": "None", "simulator_polygon_groundtrack": null }, "geometry": { "type": "Polygon", "coordinates": [ [ [ -108.134878435897434, 42.700710928571425 ], [ -108.134878435897434, 43.154799642857142 ], [ -108.74574817948718, 43.154799642857142 ], [ -108.74574817948718, 42.700710928571425 ], [ -108.134878435897434, 42.700710928571425 ] ] ] } },
{ "type": "Feature", "properties": { "simulator_id": 4, "planner_time": "2019-03-02T00:00:00", "planner_final_eta": 0.0054451590592909686, "planner_latitude": 42.927755285714284, "planner_longitude": -107.82944356410256, "simulator_expiration_date": null, "simulator_simulation_status": "None", "simulator_completion_date": null, "simulator_satellite": "None", "simulator_polygon_groundtrack": null }, "geometry": { "type": "Polygon", "coordinates": [ [ [ -107.524008692307689, 42.700710928571425 ], [ -107.524008692307689, 43.154799642857142 ], [ -108.134878435897434, 43.154799642857142 ], [ -108.134878435897434, 42.700710928571425 ], [ -107.524008692307689, 42.700710928571425 ] ] ] } },
{ "type": "Feature", "properties": { "simulator_id": 9, "planner_time": "2019-03-02T00:00:00", "planner_final_eta": 0.0052995845630825237, "planner_latitude": 43.835932714285725, "planner_longitude": -108.44031330769231, "simulator_expiration_date": null, "simulator_simulation_status": "None", "simulator_completion_date": null, "simulator_satellite": "None", "simulator_polygon_groundtrack": null }, "geometry": { "type": "Polygon", "coordinates": [ [ [ -108.134878435897434, 43.60888835714286 ], [ -108.134878435897434, 44.062977071428577 ], [ -108.74574817948718, 44.062977071428577 ], [ -108.74574817948718, 43.60888835714286 ], [ -108.134878435897434, 43.60888835714286 ] ] ] } },
{ "type": "Feature", "properties": { "simulator_id": 13, "planner_time": "2019-03-02T00:00:00", "planner_final_eta": 0.0063621777992986794, "planner_latitude": 44.290021428571428, "planner_longitude": -110.27292253846156, "simulator_expiration_date": null, "simulator_simulation_status": "Completed", "simulator_completion_date": "2019-03-03T01:09:36.054Z", "simulator_satellite": "SnowGlobe Ku 2", "simulator_polygon_groundtrack": "POLYGON Z ((-110.33123332472759 44.181744498385925 0, -110.34801361290573 44.24626138729511 0, -110.36278211537415 44.30313154248896 0, -110.37638075212871 44.35557022956801 0, -110.38943304932117 44.40596868589854 0, -110.40246985380873 44.45637271319361 0, -110.41601947078806 44.50882902721289 0, -110.4306968715121 44.56573194193774 0, -110.44726583768303 44.63006941323373 0, -110.23728741699958 44.65835262080049 0, -110.10950081116395 44.67537312443642 0, -110.01334517779961 44.688084968218604 0, -109.92898632082834 44.69916973353596 0, -109.84442028410002 44.7102184126075 0, -109.74752048201292 44.722800643704225 0, -109.61789962423038 44.73950171011607 0, -109.40278431138722 44.76689059754121 0, -109.38728880304103 44.70186180950613 0, -109.37354307297497 44.644349412703264 0, -109.36083760013392 44.59133281113796 0, -109.34859863366727 44.54039178906601 0, -109.33633109720567 44.48945770026946 0, -109.32353522710531 44.43646303608791 0, -109.30962149564631 44.378991409709 0, -109.29384839427553 44.31402998843742 0, -109.50751298278843 44.287689587654214 0, -109.63626031800588 44.27160374914311 0, -109.73250735105563 44.25947329707365 0, -109.81650384384433 44.24881319420463 0, -109.90029465467802 44.23811075660378 0, -109.99580289944464 44.225828248413784 0, -110.12272924785171 44.209367656651565 0, -110.33123332472759 44.181744498385925 0))" }, "geometry": { "type": "Polygon", "coordinates": [ [ [ -109.967487666666671, 44.06297707142857 ], [ -109.967487666666671, 44.517065785714287 ], [ -110.578357410256416, 44.517065785714287 ], [ -110.578357410256416, 44.06297707142857 ], [ -109.967487666666671, 44.06297707142857 ] ] ] } },
{ "type": "Feature", "properties": { "simulator_id": 19, "planner_time": "2019-03-02T00:00:00", "planner_final_eta": 0.0047341303516493776, "planner_latitude": 44.744110142857146, "planner_longitude": -112.10553176923077, "simulator_expiration_date": null, "simulator_simulation_status": "None", "simulator_completion_date": null, "simulator_satellite": "None", "simulator_polygon_groundtrack": null }, "geometry": { "type": "Polygon", "coordinates": [ [ [ -111.800096897435893, 44.517065785714287 ], [ -111.800096897435893, 44.9711545 ], [ -112.410966641025638, 44.9711545 ], [ -112.410966641025638, 44.517065785714287 ], [ -111.800096897435893, 44.517065785714287 ] ] ] } },
{ "type": "Feature", "properties": { "simulator_id": 18, "planner_time": "2019-03-02T00:00:00", "planner_final_eta": 0.0069123697016935928, "planner_latitude": 44.744110142857146, "planner_longitude": -112.71640151282051, "simulator_expiration_date": null, "simulator_simulation_status": "None", "simulator_completion_date": null, "simulator_satellite": "None", "simulator_polygon_groundtrack": null }, "geometry": { "type": "Polygon", "coordinates": [ [ [ -112.410966641025638, 44.517065785714287 ], [ -112.410966641025638, 44.9711545 ], [ -113.021836384615384, 44.9711545 ], [ -113.021836384615384, 44.517065785714287 ], [ -112.410966641025638, 44.517065785714287 ] ] ] } },
{ "type": "Feature", "properties": { "simulator_id": 23, "planner_time": "2019-03-02T00:00:00", "planner_final_eta": 0.0080179966139622971, "planner_latitude": 45.198198857142849, "planner_longitude": -112.10553176923077, "simulator_expiration_date": null, "simulator_simulation_status": "None", "simulator_completion_date": null, "simulator_satellite": "None", "simulator_polygon_groundtrack": null }, "geometry": { "type": "Polygon", "coordinates": [ [ [ -111.800096897435893, 44.9711545 ], [ -111.800096897435893, 45.425243214285715 ], [ -112.410966641025638, 45.425243214285715 ], [ -112.410966641025638, 44.9711545 ], [ -111.800096897435893, 44.9711545 ] ] ] } },
{ "type": "Feature", "properties": { "simulator_id": 24, "planner_time": "2019-03-02T00:00:00", "planner_final_eta": 0.0057465889073899813, "planner_latitude": 45.198198857142849, "planner_longitude": -111.49466202564102, "simulator_expiration_date": null, "simulator_simulation_status": "None", "simulator_completion_date": null, "simulator_satellite": "None", "simulator_polygon_groundtrack": null }, "geometry": { "type": "Polygon", "coordinates": [ [ [ -111.189227153846147, 44.9711545 ], [ -111.189227153846147, 45.425243214285715 ], [ -111.800096897435893, 45.425243214285715 ], [ -111.800096897435893, 44.9711545 ], [ -111.189227153846147, 44.9711545 ] ] ] } },
{ "type": "Feature", "properties": { "simulator_id": 25, "planner_time": "2019-03-02T00:00:00", "planner_final_eta": 0.0058359527477046692, "planner_latitude": 45.198198857142849, "planner_longitude": -110.88379228205129, "simulator_expiration_date": null, "simulator_simulation_status": "None", "simulator_completion_date": null, "simulator_satellite": "None", "simulator_polygon_groundtrack": null }, "geometry": { "type": "Polygon", "coordinates": [ [ [ -110.578357410256416, 44.9711545 ], [ -110.578357410256416, 45.425243214285715 ], [ -111.189227153846161, 45.425243214285715 ], [ -111.189227153846161, 44.9711545 ], [ -110.578357410256416, 44.9711545 ] ] ] } },
{ "type": "Feature", "properties": { "simulator_id": 20, "planner_time": "2019-03-02T00:00:00", "planner_final_eta": 0.0052770968745926823, "planner_latitude": 44.744110142857146, "planner_longitude": -110.88379228205129, "simulator_expiration_date": null, "simulator_simulation_status": "None", "simulator_completion_date": null, "simulator_satellite": "None", "simulator_polygon_groundtrack": null }, "geometry": { "type": "Polygon", "coordinates": [ [ [ -110.578357410256416, 44.517065785714287 ], [ -110.578357410256416, 44.9711545 ], [ -111.189227153846161, 44.9711545 ], [ -111.189227153846161, 44.517065785714287 ], [ -110.578357410256416, 44.517065785714287 ] ] ] } },
{ "type": "Feature", "properties": { "simulator_id": 44, "planner_time": "2019-03-02T00:00:00", "planner_final_eta": 0.0045256326414947999, "planner_latitude": 46.560465, "planner_longitude": -110.88379228205129, "simulator_expiration_date": null, "simulator_simulation_status": "None", "simulator_completion_date": null, "simulator_satellite": "None", "simulator_polygon_groundtrack": null }, "geometry": { "type": "Polygon", "coordinates": [ [ [ -110.578357410256416, 46.333420642857142 ], [ -110.578357410256416, 46.787509357142859 ], [ -111.189227153846161, 46.787509357142859 ], [ -111.189227153846161, 46.333420642857142 ], [ -110.578357410256416, 46.333420642857142 ] ] ] } },
{ "type": "Feature", "properties": { "simulator_id": 43, "planner_time": "2019-03-02T00:00:00", "planner_final_eta": 0.0042607872616539245, "planner_latitude": 46.560465, "planner_longitude": -111.49466202564102, "simulator_expiration_date": null, "simulator_simulation_status": "None", "simulator_completion_date": null, "simulator_satellite": "None", "simulator_polygon_groundtrack": null }, "geometry": { "type": "Polygon", "coordinates": [ [ [ -111.189227153846147, 46.333420642857142 ], [ -111.189227153846147, 46.787509357142859 ], [ -111.800096897435893, 46.787509357142859 ], [ -111.800096897435893, 46.333420642857142 ], [ -111.189227153846147, 46.333420642857142 ] ] ] } },
{ "type": "Feature", "properties": { "simulator_id": 35, "planner_time": "2019-03-02T00:00:00", "planner_final_eta": 0.011507181010526273, "planner_latitude": 46.10637628571429, "planner_longitude": -110.88379228205129, "simulator_expiration_date": null, "simulator_simulation_status": "None", "simulator_completion_date": null, "simulator_satellite": "None", "simulator_polygon_groundtrack": null }, "geometry": { "type": "Polygon", "coordinates": [ [ [ -110.578357410256416, 45.879331928571432 ], [ -110.578357410256416, 46.333420642857149 ], [ -111.189227153846161, 46.333420642857149 ], [ -111.189227153846161, 45.879331928571432 ], [ -110.578357410256416, 45.879331928571432 ] ] ] } },
{ "type": "Feature", "properties": { "simulator_id": 28, "planner_time": "2019-03-02T00:00:00", "planner_final_eta": 0.0052162475712600395, "planner_latitude": 45.652287571428566, "planner_longitude": -110.88379228205129, "simulator_expiration_date": null, "simulator_simulation_status": "None", "simulator_completion_date": null, "simulator_satellite": "None", "simulator_polygon_groundtrack": null }, "geometry": { "type": "Polygon", "coordinates": [ [ [ -110.578357410256416, 45.425243214285715 ], [ -110.578357410256416, 45.879331928571432 ], [ -111.189227153846161, 45.879331928571432 ], [ -111.189227153846161, 45.425243214285715 ], [ -110.578357410256416, 45.425243214285715 ] ] ] } },
{ "type": "Feature", "properties": { "simulator_id": 27, "planner_time": "2019-03-02T00:00:00", "planner_final_eta": 0.0066764760517824644, "planner_latitude": 45.652287571428566, "planner_longitude": -112.10553176923077, "simulator_expiration_date": null, "simulator_simulation_status": "None", "simulator_completion_date": null, "simulator_satellite": "None", "simulator_polygon_groundtrack": null }, "geometry": { "type": "Polygon", "coordinates": [ [ [ -111.800096897435893, 45.425243214285715 ], [ -111.800096897435893, 45.879331928571432 ], [ -112.410966641025638, 45.879331928571432 ], [ -112.410966641025638, 45.425243214285715 ], [ -111.800096897435893, 45.425243214285715 ] ] ] } },
{ "type": "Feature", "properties": { "simulator_id": 34, "planner_time": "2019-03-02T00:00:00", "planner_final_eta": 0.0043461611674453704, "planner_latitude": 46.10637628571429, "planner_longitude": -112.10553176923077, "simulator_expiration_date": null, "simulator_simulation_status": "None", "simulator_completion_date": null, "simulator_satellite": "None", "simulator_polygon_groundtrack": null }, "geometry": { "type": "Polygon", "coordinates": [ [ [ -111.800096897435893, 45.879331928571432 ], [ -111.800096897435893, 46.333420642857149 ], [ -112.410966641025638, 46.333420642857149 ], [ -112.410966641025638, 45.879331928571432 ], [ -111.800096897435893, 45.879331928571432 ] ] ] } },
{ "type": "Feature", "properties": { "simulator_id": 42, "planner_time": "2019-03-02T00:00:00", "planner_final_eta": 0.0042684900144723432, "planner_latitude": 46.560465, "planner_longitude": -112.10553176923077, "simulator_expiration_date": null, "simulator_simulation_status": "None", "simulator_completion_date": null, "simulator_satellite": "None", "simulator_polygon_groundtrack": null }, "geometry": { "type": "Polygon", "coordinates": [ [ [ -111.800096897435893, 46.333420642857142 ], [ -111.800096897435893, 46.787509357142859 ], [ -112.410966641025638, 46.787509357142859 ], [ -112.410966641025638, 46.333420642857142 ], [ -111.800096897435893, 46.333420642857142 ] ] ] } },
{ "type": "Feature", "properties": { "simulator_id": 47, "planner_time": "2019-03-02T00:00:00", "planner_final_eta": 0.0052925631645115781, "planner_latitude": 47.014553714285718, "planner_longitude": -111.49466202564102, "simulator_expiration_date": null, "simulator_simulation_status": "None", "simulator_completion_date": null, "simulator_satellite": "None", "simulator_polygon_groundtrack": null }, "geometry": { "type": "Polygon", "coordinates": [ [ [ -111.189227153846147, 46.787509357142852 ], [ -111.189227153846147, 47.241598071428569 ], [ -111.800096897435893, 47.241598071428569 ], [ -111.800096897435893, 46.787509357142852 ], [ -111.189227153846147, 46.787509357142852 ] ] ] } },
{ "type": "Feature", "properties": { "simulator_id": 48, "planner_time": "2019-03-02T00:00:00", "planner_final_eta": 0.0043148773283587273, "planner_latitude": 47.468642428571435, "planner_longitude": -111.49466202564102, "simulator_expiration_date": null, "simulator_simulation_status": "None", "simulator_completion_date": null, "simulator_satellite": "None", "simulator_polygon_groundtrack": null }, "geometry": { "type": "Polygon", "coordinates": [ [ [ -111.189227153846147, 47.241598071428569 ], [ -111.189227153846147, 47.695686785714287 ], [ -111.800096897435893, 47.695686785714287 ], [ -111.800096897435893, 47.241598071428569 ], [ -111.189227153846147, 47.241598071428569 ] ] ] } },
{ "type": "Feature", "properties": { "simulator_id": 49, "planner_time": "2019-03-02T00:00:00", "planner_final_eta": 0.0045957885457760441, "planner_latitude": 48.830908571428573, "planner_longitude": -111.49466202564102, "simulator_expiration_date": null, "simulator_simulation_status": "Completed", "simulator_completion_date": "2019-03-02T13:44:49.693Z", "simulator_satellite": "SnowGlobe Ku 4", "simulator_polygon_groundtrack": "POLYGON Z ((-111.14755706102578 49.022471771132345 0, -111.16603020100672 48.95788238731284 0, -111.18232827831832 48.90096327582235 0, -111.19736832247901 48.84849184844742 0, -111.21183399194075 48.79807313144384 0, -111.22631181599587 48.74765982001638 0, -111.24139031796982 48.69520549628968 0, -111.25775986797359 48.63831817183261 0, -111.27628426279954 48.57401515395283 0, -111.50256181648376 48.60197986397894 0, -111.6402881722903 48.618759025846316 0, -111.74393320923534 48.63126556966992 0, -111.83486961884003 48.64215346722766 0, -111.92603581616095 48.652989080304366 0, -112.0305062249597 48.66530783033351 0, -112.17026696906696 48.68162415700314 0, -112.40224178448072 48.70829302179103 0, -112.38494092356024 48.77330314975204 0, -112.36967351710709 48.830817664607686 0, -112.35562771421998 48.88385171241495 0, -112.34215730759566 48.934823509121564 0, -112.32871380463826 48.98580210629821 0, -112.31475312673088 49.03885767129191 0, -112.2996439236009 49.09641217567326 0, -112.28260446710068 49.161488380183634 0, -112.04876460143397 49.13373083431345 0, -111.90788198212003 49.116774637792524 0, -111.80257377325364 49.10398548005386 0, -111.71067698527813 49.092744888357736 0, -111.6190122742812 49.08145816635163 0, -111.51453766061849 49.068503319479845 0, -111.3757097024778 49.051138768740294 0, -111.14755706102578 49.022471771132345 0))" }, "geometry": { "type": "Polygon", "coordinates": [ [ [ -111.189227153846147, 48.603864214285714 ], [ -111.189227153846147, 49.057952928571432 ], [ -111.800096897435893, 49.057952928571432 ], [ -111.800096897435893, 48.603864214285714 ], [ -111.189227153846147, 48.603864214285714 ] ] ] } },
{ "type": "Feature", "properties": { "simulator_id": 32, "planner_time": "2019-03-02T00:00:00", "planner_final_eta": 0.0052012271319155047, "planner_latitude": 45.652287571428566, "planner_longitude": -105.99683433333333, "simulator_expiration_date": null, "simulator_simulation_status": "None", "simulator_completion_date": null, "simulator_satellite": "None", "simulator_polygon_groundtrack": null }, "geometry": { "type": "Polygon", "coordinates": [ [ [ -105.691399461538467, 45.425243214285715 ], [ -105.691399461538467, 45.879331928571432 ], [ -106.302269205128212, 45.879331928571432 ], [ -106.302269205128212, 45.425243214285715 ], [ -105.691399461538467, 45.425243214285715 ] ] ] } },
{ "type": "Feature", "properties": { "simulator_id": 31, "planner_time": "2019-03-02T00:00:00", "planner_final_eta": 0.0051998994754315171, "planner_latitude": 45.652287571428566, "planner_longitude": -106.60770407692308, "simulator_expiration_date": null, "simulator_simulation_status": "None", "simulator_completion_date": null, "simulator_satellite": "None", "simulator_polygon_groundtrack": null }, "geometry": { "type": "Polygon", "coordinates": [ [ [ -106.302269205128212, 45.425243214285715 ], [ -106.302269205128212, 45.879331928571432 ], [ -106.913138948717958, 45.879331928571432 ], [ -106.913138948717958, 45.425243214285715 ], [ -106.302269205128212, 45.425243214285715 ] ] ] } },
{ "type": "Feature", "properties": { "simulator_id": 38, "planner_time": "2019-03-02T00:00:00", "planner_final_eta": 0.005656204679455097, "planner_latitude": 46.10637628571429, "planner_longitude": -106.60770407692308, "simulator_expiration_date": null, "simulator_simulation_status": "None", "simulator_completion_date": null, "simulator_satellite": "None", "simulator_polygon_groundtrack": null }, "geometry": { "type": "Polygon", "coordinates": [ [ [ -106.302269205128212, 45.879331928571432 ], [ -106.302269205128212, 46.333420642857149 ], [ -106.913138948717958, 46.333420642857149 ], [ -106.913138948717958, 45.879331928571432 ], [ -106.302269205128212, 45.879331928571432 ] ] ] } },
{ "type": "Feature", "properties": { "simulator_id": 39, "planner_time": "2019-03-02T00:00:00", "planner_final_eta": 0.0047521261155395594, "planner_latitude": 46.10637628571429, "planner_longitude": -105.99683433333333, "simulator_expiration_date": null, "simulator_simulation_status": "Completed", "simulator_completion_date": "2019-03-03T00:50:57.150Z", "simulator_satellite": "SnowGlobe Ku 3", "simulator_polygon_groundtrack": "POLYGON Z ((-106.02176421392636 45.98530481901832 0, -106.0392175111068 46.049833029907816 0, -106.05458077907586 46.10671308304178 0, -106.06872910255859 46.15916083004647 0, -106.08231084686827 46.20956793466672 0, -106.09587828291298 46.25998055436491 0, -106.10998133424798 46.31244575148445 0, -106.12526046529749 46.36935823553635 0, -106.14251151550812 46.433706444708264 0, -105.92559561055224 46.46220566760884 0, -105.79357912937897 46.47934518884285 0, -105.69423673939224 46.49214038132089 0, -105.60707935957781 46.50329387881438 0, -105.51970538753189 46.51440733942405 0, -105.4195850208033 46.527058729245006 0, -105.28565096080158 46.54384383947781 0, -105.06336483579074 46.571350813038336 0, -105.04729779644805 46.50630000362818 0, -105.0330472598845 46.448768071358934 0, -105.01987699699811 46.3957334101254 0, -105.00719194144895 46.34477498748602 0, -104.99447887365494 46.29382345206263 0, -104.98121997823102 46.240810582481025 0, -104.96680471983302 46.18331914980928 0, -104.95046550596658 46.11833525970608 0, -105.17114484357381 46.09189227380247 0, -105.30411181389871 46.07573188704237 0, -105.40350969052683 46.063539451032995 0, -105.49025342763164 46.05282088148981 0, -105.57678236160666 46.04205606062447 0, -105.67540868827865 46.02969750082 0, -105.80647392415955 46.01312768848198 0, -106.02176421392636 45.98530481901832 0))" }, "geometry": { "type": "Polygon", "coordinates": [ [ [ -105.691399461538467, 45.879331928571432 ], [ -105.691399461538467, 46.333420642857149 ], [ -106.302269205128212, 46.333420642857149 ], [ -106.302269205128212, 45.879331928571432 ], [ -105.691399461538467, 45.879331928571432 ] ] ] } },
{ "type": "Feature", "properties": { "simulator_id": 46, "planner_time": "2019-03-02T00:00:00", "planner_final_eta": 0.0045035576594994482, "planner_latitude": 46.560465, "planner_longitude": -106.60770407692308, "simulator_expiration_date": null, "simulator_simulation_status": "None", "simulator_completion_date": null, "simulator_satellite": "None", "simulator_polygon_groundtrack": null }, "geometry": { "type": "Polygon", "coordinates": [ [ [ -106.302269205128212, 46.333420642857142 ], [ -106.302269205128212, 46.787509357142859 ], [ -106.913138948717958, 46.787509357142859 ], [ -106.913138948717958, 46.333420642857142 ], [ -106.302269205128212, 46.333420642857142 ] ] ] } },
{ "type": "Feature", "properties": { "simulator_id": 45, "planner_time": "2019-03-02T00:00:00", "planner_final_eta": 0.0047572044741024128, "planner_latitude": 46.560465, "planner_longitude": -107.2185738205128, "simulator_expiration_date": null, "simulator_simulation_status": "None", "simulator_completion_date": null, "simulator_satellite": "None", "simulator_polygon_groundtrack": null }, "geometry": { "type": "Polygon", "coordinates": [ [ [ -106.913138948717943, 46.333420642857142 ], [ -106.913138948717943, 46.787509357142859 ], [ -107.524008692307689, 46.787509357142859 ], [ -107.524008692307689, 46.333420642857142 ], [ -106.913138948717943, 46.333420642857142 ] ] ] } },
{ "type": "Feature", "properties": { "simulator_id": 37, "planner_time": "2019-03-02T00:00:00", "planner_final_eta": 0.00540981085400093, "planner_latitude": 46.10637628571429, "planner_longitude": -107.2185738205128, "simulator_expiration_date": null, "simulator_simulation_status": "None", "simulator_completion_date": null, "simulator_satellite": "None", "simulator_polygon_groundtrack": null }, "geometry": { "type": "Polygon", "coordinates": [ [ [ -106.913138948717943, 45.879331928571432 ], [ -106.913138948717943, 46.333420642857149 ], [ -107.524008692307689, 46.333420642857149 ], [ -107.524008692307689, 45.879331928571432 ], [ -106.913138948717943, 45.879331928571432 ] ] ] } },
{ "type": "Feature", "properties": { "simulator_id": 36, "planner_time": "2019-03-02T00:00:00", "planner_final_eta": 0.0043550831058927477, "planner_latitude": 46.10637628571429, "planner_longitude": -107.82944356410256, "simulator_expiration_date": null, "simulator_simulation_status": "None", "simulator_completion_date": null, "simulator_satellite": "None", "simulator_polygon_groundtrack": null }, "geometry": { "type": "Polygon", "coordinates": [ [ [ -107.524008692307689, 45.879331928571432 ], [ -107.524008692307689, 46.333420642857149 ], [ -108.134878435897434, 46.333420642857149 ], [ -108.134878435897434, 45.879331928571432 ], [ -107.524008692307689, 45.879331928571432 ] ] ] } },
{ "type": "Feature", "properties": { "simulator_id": 29, "planner_time": "2019-03-02T00:00:00", "planner_final_eta": 0.0052781406180764951, "planner_latitude": 45.652287571428566, "planner_longitude": -107.82944356410256, "simulator_expiration_date": null, "simulator_simulation_status": "None", "simulator_completion_date": null, "simulator_satellite": "None", "simulator_polygon_groundtrack": null }, "geometry": { "type": "Polygon", "coordinates": [ [ [ -107.524008692307689, 45.425243214285715 ], [ -107.524008692307689, 45.879331928571432 ], [ -108.134878435897434, 45.879331928571432 ], [ -108.134878435897434, 45.425243214285715 ], [ -107.524008692307689, 45.425243214285715 ] ] ] } },
{ "type": "Feature", "properties": { "simulator_id": 30, "planner_time": "2019-03-02T00:00:00", "planner_final_eta": 0.0046676924434088255, "planner_latitude": 45.652287571428566, "planner_longitude": -107.2185738205128, "simulator_expiration_date": null, "simulator_simulation_status": "None", "simulator_completion_date": null, "simulator_satellite": "None", "simulator_polygon_groundtrack": null }, "geometry": { "type": "Polygon", "coordinates": [ [ [ -106.913138948717943, 45.425243214285715 ], [ -106.913138948717943, 45.879331928571432 ], [ -107.524008692307689, 45.879331928571432 ], [ -107.524008692307689, 45.425243214285715 ], [ -106.913138948717943, 45.425243214285715 ] ] ] } },
{ "type": "Feature", "properties": { "simulator_id": 26, "planner_time": "2019-03-02T00:00:00", "planner_final_eta": 0.0050282333782067949, "planner_latitude": 45.198198857142849, "planner_longitude": -105.99683433333333, "simulator_expiration_date": null, "simulator_simulation_status": "None", "simulator_completion_date": null, "simulator_satellite": "None", "simulator_polygon_groundtrack": null }, "geometry": { "type": "Polygon", "coordinates": [ [ [ -105.691399461538467, 44.9711545 ], [ -105.691399461538467, 45.425243214285715 ], [ -106.302269205128212, 45.425243214285715 ], [ -106.302269205128212, 44.9711545 ], [ -105.691399461538467, 44.9711545 ] ] ] } },
{ "type": "Feature", "properties": { "simulator_id": 40, "planner_time": "2019-03-02T00:00:00", "planner_final_eta": 0.0043041580047093108, "planner_latitude": 46.10637628571429, "planner_longitude": -102.94248561538461, "simulator_expiration_date": null, "simulator_simulation_status": "None", "simulator_completion_date": null, "simulator_satellite": "None", "simulator_polygon_groundtrack": null }, "geometry": { "type": "Polygon", "coordinates": [ [ [ -102.637050743589739, 45.879331928571432 ], [ -102.637050743589739, 46.333420642857149 ], [ -103.247920487179485, 46.333420642857149 ], [ -103.247920487179485, 45.879331928571432 ], [ -102.637050743589739, 45.879331928571432 ] ] ] } },
{ "type": "Feature", "properties": { "simulator_id": 33, "planner_time": "2019-03-02T00:00:00", "planner_final_eta": 0.0047081927151481203, "planner_latitude": 45.652287571428566, "planner_longitude": -102.94248561538461, "simulator_expiration_date": null, "simulator_simulation_status": "None", "simulator_completion_date": null, "simulator_satellite": "None", "simulator_polygon_groundtrack": null }, "geometry": { "type": "Polygon", "coordinates": [ [ [ -102.637050743589739, 45.425243214285715 ], [ -102.637050743589739, 45.879331928571432 ], [ -103.247920487179485, 45.879331928571432 ], [ -103.247920487179485, 45.425243214285715 ], [ -102.637050743589739, 45.425243214285715 ] ] ] } },
{ "type": "Feature", "properties": { "simulator_id": 41, "planner_time": "2019-03-02T00:00:00", "planner_final_eta": 0.0043072097940669843, "planner_latitude": 46.10637628571429, "planner_longitude": -98.055527666666663, "simulator_expiration_date": null, "simulator_simulation_status": "Completed", "simulator_completion_date": "2019-03-02T12:48:09.865Z", "simulator_satellite": "SnowGlobe Ku 2", "simulator_polygon_groundtrack": "POLYGON Z ((-97.56058290774403 46.28801135288149 0, -97.57783747110294 46.22343105378131 0, -97.5930646347071 46.166520099443055 0, -97.60711989096265 46.11405631957568 0, -97.62064150239563 46.06364506820029 0, -97.63417752552074 46.013239338255644 0, -97.64827838117324 45.960793028603625 0, -97.66359028987772 45.90391454253886 0, -97.68092245644085 45.839621702394574 0, -97.89569953080647 45.86719272571404 0, -98.02641329962769 45.88375245730966 0, -98.12477483277681 45.896103945673694 0, -98.21107123197085 45.906862926212135 0, -98.29758165211653 45.91757598218072 0, -98.39671192577397 45.92976252038409 0, -98.52932050460099 45.945915719036954 0, -98.74940401101317 45.972348547249474 0, -98.73311379083066 46.03732969578097 0, -98.71874193801128 46.09481871131029 0, -98.7055231171752 46.147829358791235 0, -98.69284861099848 46.198778764463405 0, -98.68020216647878 46.2497350627472 0, -98.6670721345203 46.30276751895211 0, -98.65286529407828 46.36029706580611 0, -98.63684772845698 46.42534518606599 0, -98.41517075415717 46.397849702641814 0, -98.28160307037773 46.38107259621423 0, -98.18175625592187 46.368427720279094 0, -98.0946207792644 46.357320315307625 0, -98.00770108748887 46.34617320296384 0, -97.90862934991172 46.33338570791706 0, -97.77697209764894 46.31625710755318 0, -97.56058290774403 46.28801135288149 0))" }, "geometry": { "type": "Polygon", "coordinates": [ [ [ -97.75009279487179, 45.879331928571432 ], [ -97.75009279487179, 46.333420642857149 ], [ -98.360962538461536, 46.333420642857149 ], [ -98.360962538461536, 45.879331928571432 ], [ -97.75009279487179, 45.879331928571432 ] ] ] } },
{ "type": "Feature", "properties": { "simulator_id": 22, "planner_time": "2019-03-02T00:00:00", "planner_final_eta": 0.004954346077855918, "planner_latitude": 44.744110142857146, "planner_longitude": -98.055527666666663, "simulator_expiration_date": null, "simulator_simulation_status": "None", "simulator_completion_date": null, "simulator_satellite": "None", "simulator_polygon_groundtrack": null }, "geometry": { "type": "Polygon", "coordinates": [ [ [ -97.75009279487179, 44.517065785714287 ], [ -97.75009279487179, 44.9711545 ], [ -98.360962538461536, 44.9711545 ], [ -98.360962538461536, 44.517065785714287 ], [ -97.75009279487179, 44.517065785714287 ] ] ] } },
{ "type": "Feature", "properties": { "simulator_id": 21, "planner_time": "2019-03-02T00:00:00", "planner_final_eta": 0.0047806038642149926, "planner_latitude": 44.744110142857146, "planner_longitude": -98.666397410256408, "simulator_expiration_date": null, "simulator_simulation_status": "None", "simulator_completion_date": null, "simulator_satellite": "None", "simulator_polygon_groundtrack": null }, "geometry": { "type": "Polygon", "coordinates": [ [ [ -98.360962538461536, 44.517065785714287 ], [ -98.360962538461536, 44.9711545 ], [ -98.971832282051281, 44.9711545 ], [ -98.971832282051281, 44.517065785714287 ], [ -98.360962538461536, 44.517065785714287 ] ] ] } },
{ "type": "Feature", "properties": { "simulator_id": 17, "planner_time": "2019-03-02T00:00:00", "planner_final_eta": 0.0046190878978697118, "planner_latitude": 44.290021428571428, "planner_longitude": -96.833788179487186, "simulator_expiration_date": null, "simulator_simulation_status": "None", "simulator_completion_date": null, "simulator_satellite": "None", "simulator_polygon_groundtrack": null }, "geometry": { "type": "Polygon", "coordinates": [ [ [ -96.528353307692313, 44.06297707142857 ], [ -96.528353307692313, 44.517065785714287 ], [ -97.139223051282059, 44.517065785714287 ], [ -97.139223051282059, 44.06297707142857 ], [ -96.528353307692313, 44.06297707142857 ] ] ] } },
{ "type": "Feature", "properties": { "simulator_id": 12, "planner_time": "2019-03-02T00:00:00", "planner_final_eta": 0.004320809753235991, "planner_latitude": 43.835932714285725, "planner_longitude": -96.833788179487186, "simulator_expiration_date": null, "simulator_simulation_status": "None", "simulator_completion_date": null, "simulator_satellite": "None", "simulator_polygon_groundtrack": null }, "geometry": { "type": "Polygon", "coordinates": [ [ [ -96.528353307692313, 43.60888835714286 ], [ -96.528353307692313, 44.062977071428577 ], [ -97.139223051282059, 44.062977071428577 ], [ -97.139223051282059, 43.60888835714286 ], [ -96.528353307692313, 43.60888835714286 ] ] ] } },
{ "type": "Feature", "properties": { "simulator_id": 16, "planner_time": "2019-03-02T00:00:00", "planner_final_eta": 0.0050065431989249412, "planner_latitude": 44.290021428571428, "planner_longitude": -98.055527666666663, "simulator_expiration_date": null, "simulator_simulation_status": "None", "simulator_completion_date": null, "simulator_satellite": "None", "simulator_polygon_groundtrack": null }, "geometry": { "type": "Polygon", "coordinates": [ [ [ -97.75009279487179, 44.06297707142857 ], [ -97.75009279487179, 44.517065785714287 ], [ -98.360962538461536, 44.517065785714287 ], [ -98.360962538461536, 44.06297707142857 ], [ -97.75009279487179, 44.06297707142857 ] ] ] } },
{ "type": "Feature", "properties": { "simulator_id": 15, "planner_time": "2019-03-02T00:00:00", "planner_final_eta": 0.0050399768589428871, "planner_latitude": 44.290021428571428, "planner_longitude": -98.666397410256423, "simulator_expiration_date": null, "simulator_simulation_status": "None", "simulator_completion_date": null, "simulator_satellite": "None", "simulator_polygon_groundtrack": null }, "geometry": { "type": "Polygon", "coordinates": [ [ [ -98.360962538461536, 44.06297707142857 ], [ -98.360962538461536, 44.517065785714287 ], [ -98.971832282051281, 44.517065785714287 ], [ -98.971832282051281, 44.06297707142857 ], [ -98.360962538461536, 44.06297707142857 ] ] ] } },
{ "type": "Feature", "properties": { "simulator_id": 11, "planner_time": "2019-03-02T00:00:00", "planner_final_eta": 0.0059184812026010017, "planner_latitude": 43.835932714285725, "planner_longitude": -98.666397410256423, "simulator_expiration_date": null, "simulator_simulation_status": "None", "simulator_completion_date": null, "simulator_satellite": "None", "simulator_polygon_groundtrack": null }, "geometry": { "type": "Polygon", "coordinates": [ [ [ -98.360962538461536, 43.60888835714286 ], [ -98.360962538461536, 44.062977071428577 ], [ -98.971832282051281, 44.062977071428577 ], [ -98.971832282051281, 43.60888835714286 ], [ -98.360962538461536, 43.60888835714286 ] ] ] } },
{ "type": "Feature", "properties": { "simulator_id": 7, "planner_time": "2019-03-02T00:00:00", "planner_final_eta": 0.0048819616733791283, "planner_latitude": 43.381844, "planner_longitude": -98.666397410256423, "simulator_expiration_date": null, "simulator_simulation_status": "None", "simulator_completion_date": null, "simulator_satellite": "None", "simulator_polygon_groundtrack": null }, "geometry": { "type": "Polygon", "coordinates": [ [ [ -98.360962538461536, 43.154799642857142 ], [ -98.360962538461536, 43.60888835714286 ], [ -98.971832282051281, 43.60888835714286 ], [ -98.971832282051281, 43.154799642857142 ], [ -98.360962538461536, 43.154799642857142 ] ] ] } },
{ "type": "Feature", "properties": { "simulator_id": 8, "planner_time": "2019-03-02T00:00:00", "planner_final_eta": 0.0044467031015502324, "planner_latitude": 43.381844, "planner_longitude": -98.055527666666663, "simulator_expiration_date": null, "simulator_simulation_status": "None", "simulator_completion_date": null, "simulator_satellite": "None", "simulator_polygon_groundtrack": null }, "geometry": { "type": "Polygon", "coordinates": [ [ [ -97.75009279487179, 43.154799642857142 ], [ -97.75009279487179, 43.60888835714286 ], [ -98.360962538461536, 43.60888835714286 ], [ -98.360962538461536, 43.154799642857142 ], [ -97.75009279487179, 43.154799642857142 ] ] ] } },
{ "type": "Feature", "properties": { "simulator_id": 2, "planner_time": "2019-03-02T00:00:00", "planner_final_eta": 0.0044343486978044083, "planner_latitude": 42.473666571428581, "planner_longitude": -100.49900664102564, "simulator_expiration_date": null, "simulator_simulation_status": "None", "simulator_completion_date": null, "simulator_satellite": "None", "simulator_polygon_groundtrack": null }, "geometry": { "type": "Polygon", "coordinates": [ [ [ -100.193571769230772, 42.246622214285715 ], [ -100.193571769230772, 42.700710928571432 ], [ -100.804441512820517, 42.700710928571432 ], [ -100.804441512820517, 42.246622214285715 ], [ -100.193571769230772, 42.246622214285715 ] ] ] } },
{ "type": "Feature", "properties": { "simulator_id": 5, "planner_time": "2019-03-02T00:00:00", "planner_final_eta": 0.0049140747225644094, "planner_latitude": 42.927755285714284, "planner_longitude": -100.49900664102564, "simulator_expiration_date": null, "simulator_simulation_status": "None", "simulator_completion_date": null, "simulator_satellite": "None", "simulator_polygon_groundtrack": null }, "geometry": { "type": "Polygon", "coordinates": [ [ [ -100.193571769230772, 42.700710928571425 ], [ -100.193571769230772, 43.154799642857142 ], [ -100.804441512820517, 43.154799642857142 ], [ -100.804441512820517, 42.700710928571425 ], [ -100.193571769230772, 42.700710928571425 ] ] ] } },
{ "type": "Feature", "properties": { "simulator_id": 6, "planner_time": "2019-03-02T00:00:00", "planner_final_eta": 0.0045898736302945218, "planner_latitude": 43.381844, "planner_longitude": -100.49900664102564, "simulator_expiration_date": "NaT", "simulator_simulation_status": "None", "simulator_completion_date": null, "simulator_satellite": "None", "simulator_polygon_groundtrack": null }, "geometry": { "type": "Polygon", "coordinates": [ [ [ -100.193571769230772, 43.154799642857142 ], [ -100.193571769230772, 43.60888835714286 ], [ -100.804441512820517, 43.60888835714286 ], [ -100.804441512820517, 43.154799642857142 ], [ -100.193571769230772, 43.154799642857142 ] ] ] } },
{ "type": "Feature", "properties": { "simulator_id": 14, "planner_time": "2019-03-02T00:00:00", "planner_final_eta": 0.004259951714878361, "planner_latitude": 44.290021428571428, "planner_longitude": -101.10987638461539, "simulator_expiration_date": null, "simulator_simulation_status": "None", "simulator_completion_date": null, "simulator_satellite": "None", "simulator_polygon_groundtrack": null }, "geometry": { "type": "Polygon", "coordinates": [ [ [ -100.804441512820517, 44.06297707142857 ], [ -100.804441512820517, 44.517065785714287 ], [ -101.415311256410263, 44.517065785714287 ], [ -101.415311256410263, 44.06297707142857 ], [ -100.804441512820517, 44.06297707142857 ] ] ] } },
{ "type": "Feature", "properties": { "simulator_id": 10, "planner_time": "2019-03-02T00:00:00", "planner_final_eta": 0.0042559732837741619, "planner_latitude": 43.835932714285725, "planner_longitude": -101.10987638461539, "simulator_expiration_date": null, "simulator_simulation_status": "None", "simulator_completion_date": null, "simulator_satellite": "None", "simulator_polygon_groundtrack": null }, "geometry": { "type": "Polygon", "coordinates": [ [ [ -100.804441512820517, 43.60888835714286 ], [ -100.804441512820517, 44.062977071428577 ], [ -101.415311256410263, 44.062977071428577 ], [ -101.415311256410263, 43.60888835714286 ], [ -100.804441512820517, 43.60888835714286 ] ] ] } }
]
}
